[{"OBJECT_NAME":"STARLINK-30868","OBJECT_ID":"2023-178S","EPOCH":"2026-03-09T23:30:53.047296","MEAN_MOTION":15.30178321,"ECCENTRICITY":0.00011085,"INCLINATION":53.162,"RA_OF_ASC_NODE":359.8803,"ARG_OF_PERICENTER":81.8324,"MEAN_ANOMALY":278.2802,"EPHEMERIS_TYPE":0,"CLASSIFICATION_TYPE":"U","NORAD_CAT_ID":58390,"ELEMENT_SET_NO":999,"REV_AT_EPOCH":12993,"BSTAR":-5.1827259e-5,"MEAN_MOTION_DOT":-1.893e-5,"MEAN_MOTION_DDOT":0},{"OBJECT_NAME":"TOMORROW-S4","OBJECT_ID":"2024-247K","EPOCH":"2026-03-09T12:47:35.836224","MEAN_MOTION":15.27717249,"ECCENTRICITY":0.00044343,"INCLINATION":44.9818,"RA_OF_ASC_NODE":117.9996,"ARG_OF_PERICENTER":210.4078,"MEAN_ANOMALY":149.6548,"EPHEMERIS_TYPE":0,"CLASSIFICATION_TYPE":"U","NORAD_CAT_ID":62386,"ELEMENT_SET_NO":999,"REV_AT_EPOCH":6770,"BSTAR":0.00046927249,"MEAN_MOTION_DOT":0.00012677,"MEAN_MOTION_DDOT":0}]
